NORAD_CAT_ID,OBJECT_NAME,OBJECT_TYPE,EPOCH,MEAN_MOTION,ECCENTRICITY,INCLINATION,RA_OF_ASC_NODE,ARG_OF_PERICENTER,MEAN_ANOMALY,BSTAR,MEAN_MOTION_DOT,MEAN_MOTION_DDOT,TLE_LINE0,TLE_LINE1,TLE_LINE2,SEMIMAJOR_AXIS,PERIOD,APOGEE,PERIGEE,DECAYED
56817.0,STARLINK-5982,PAYLOAD,2024-01-20 17:52:13,14.98326426,0.0002966,70.0008,148.3786,265.7339,94.3481,-5.3365e-05,-7.3e-06,0.0,0 STARLINK-5982,1 56817U 23078BC  24020.74460103 -.00000730  00000-0 -53365-4 0  9998,2 56817  70.0008 148.3786 0002966 265.7339  94.3481 14.98326426 36002,6950.204,96.107,574.13,570.008,0.0
56817.0,STARLINK-5982,PAYLOAD,2024-01-21 11:29:41,14.98334332,0.0003059,70.0006,146.5267,266.5168,93.5642,-3.1957e-05,-4.74e-06,0.0,0 STARLINK-5982,1 56817U 23078BC  24021.47895460 -.00000474  00000-0 -31957-4 0  9995,2 56817  70.0006 146.5267 0003059 266.5168  93.5642 14.98334332 36372,6950.179,96.107,574.171,569.918,0.0
56817.0,STARLINK-5982,PAYLOAD,2024-01-21 17:54:13,14.98338709,0.0003019,70.0008,145.8539,267.5415,92.5399,2.3401e-05,1.86e-06,0.0,0 STARLINK-5982,1 56817U 23078BC  24021.74598937  .00000186  00000-0  23401-4 0  9997,2 56817  70.0008 145.8539 0003019 267.5415  92.5399 14.98338709 36156,6950.166,96.106,574.129,569.933,0.0
56817.0,STARLINK-5982,PAYLOAD,2024-01-22 06:43:18,14.98325273,0.0002719,70.0019,144.5095,261.4197,98.6654,5.9038e-05,6.11e-06,0.0,0 STARLINK-5982,1 56817U 23078BC  24022.28007577  .00000611  00000-0  59038-4 0  9990,2 56817  70.0019 144.5095 0002719 261.4197  98.6654 14.98325273 36239,6950.208,96.107,573.962,570.183,0.0
56817.0,STARLINK-5982,PAYLOAD,2024-01-22 11:31:43,14.98322616,0.0002965,70.0011,144.0024,267.8811,92.2009,3.5871e-07,-8.9e-07,0.0,0 STARLINK-5982,1 56817U 23078BC  24022.48035993 -.00000089  00000-0  35871-6 0  9996,2 56817  70.0011 144.0024 0002965 267.8811  92.2009 14.98322616 36528,6950.216,96.107,574.141,570.02,0.0
56817.0,STARLINK-5982,PAYLOAD,2024-01-22 17:56:14,14.9834433,0.0002693,70.0018,143.3289,264.0287,96.0565,-0.00026936,-3.307e-05,0.0,0 STARLINK-5982,1 56817U 23078BC  24022.74739290 -.00003307  00000-0 -26936-3 0  9992,2 56817  70.0018 143.3289 0002693 264.0287  96.0565 14.98344330 36564,6950.149,96.106,573.885,570.142,0.0
56817.0,STARLINK-5982,PAYLOAD,2024-01-23 11:33:42,14.98374341,0.0002943,70.0014,141.4778,272.2737,87.8085,-0.00064001,-7.73e-05,0.0,0 STARLINK-5982,1 56817U 23078BC  24023.48174666 -.00007730  00000-0 -64001-3 0  9993,2 56817  70.0014 141.4778 0002943 272.2737  87.8085 14.98374341 36673,6950.056,96.104,573.966,569.875,0.0
56817.0,STARLINK-5982,PAYLOAD,2024-01-23 16:22:07,14.98334852,0.0002751,70.0013,140.9725,263.4924,96.5922,5.4274e-05,5.55e-06,0.0,0 STARLINK-5982,1 56817U 23078BC  24023.68202958  .00000555  00000-0  54274-4 0  9999,2 56817  70.0013 140.9725 0002751 263.4924  96.5922 14.98334852 36709,6950.178,96.107,573.955,570.131,0.0
56817.0,STARLINK-5982,PAYLOAD,2024-01-23 17:58:15,14.98337953,0.000289,70.0011,140.8048,264.9845,95.0985,4.5263e-05,4.47e-06,0.0,0 STARLINK-5982,1 56817U 23078BC  24023.74878733  .00000447  00000-0  45263-4 0  9994,2 56817  70.0011 140.8048 0002890 264.9845  95.0985 14.98337953 36456,6950.168,96.106,574.042,570.025,0.0
56817.0,STARLINK-5982,PAYLOAD,2024-01-24 11:35:45,14.98317982,0.0002301,70.0029,138.957,246.9051,113.1865,4.9957e-05,5.03e-06,0.0,0 STARLINK-5982,1 56817U 23078BC  24024.48316013  .00000503  00000-0  49957-4 0  9991,2 56817  70.0029 138.9570 0002301 246.9051 113.1865 14.98317982 36829,6950.23,96.108,573.694,570.496,0.0
56817.0,STARLINK-5982,PAYLOAD,2024-01-24 13:11:53,14.9831981,0.0002561,70.0026,138.7878,237.1949,122.8963,-2.6484e-05,-4.09e-06,0.0,0 STARLINK-5982,1 56817U 23078BC  24024.54992107 -.00000409  00000-0 -26484-4 0  9999,2 56817  70.0026 138.7878 0002561 237.1949 122.8963 14.98319810 36571,6950.224,96.108,573.869,570.309,0.0
56817.0,STARLINK-5982,PAYLOAD,2024-01-24 16:24:09,14.98318934,0.0002603,70.0023,138.4511,240.1325,119.9575,-3.8726e-05,-5.55e-06,0.0,0 STARLINK-5982,1 56817U 23078BC  24024.68344296 -.00000555  00000-0 -38726-4 0  9998,2 56817  70.0023 138.4511 0002603 240.1325 119.9575 14.98318934 36592,6950.227,96.108,573.901,570.283,0.0
56817.0,STARLINK-5982,PAYLOAD,2024-01-25 11:37:45,14.98330306,0.0003028,70.0005,136.4293,265.6381,94.4432,-5.6752e-05,-7.7e-06,0.0,0 STARLINK-5982,1 56817U 23078BC  24025.48455801 -.00000770  00000-0 -56752-4 0  9990,2 56817  70.0005 136.4293 0003028 265.6381  94.4432 14.98330306 36971,6950.192,96.107,574.161,569.952,0.0
56817.0,STARLINK-5982,PAYLOAD,2024-01-25 14:50:01,14.98330267,0.0002672,70.0018,136.0945,250.1751,109.912,-2.8912e-05,-4.38e-06,0.0,0 STARLINK-5982,1 56817U 23078BC  24025.61807703 -.00000438  00000-0 -28912-4 0  9995,2 56817  70.0018 136.0945 0002672 250.1751 109.9120 14.98330267 36735,6950.192,96.107,573.914,570.2,0.0
56817.0,STARLINK-5982,PAYLOAD,2024-01-25 16:26:09,14.98331967,0.0002751,70.0015,135.9261,254.3828,105.7028,-2.135e-05,-3.48e-06,0.0,0 STARLINK-5982,1 56817U 23078BC  24025.68483588 -.00000348  00000-0 -21350-4 0  9992,2 56817  70.0015 135.9261 0002751 254.3828 105.7028 14.98331967 36740,6950.187,96.107,573.964,570.14,0.0
56817.0,STARLINK-5982,PAYLOAD,2024-01-26 11:39:46,14.98331614,0.0002865,70.0007,133.9048,263.0802,97.0031,0.00011497,1.279e-05,0.0,0 STARLINK-5982,1 56817U 23078BC  24026.48595158  .00001279  00000-0  11497-3 0  9990,2 56817  70.0007 133.9048 0002865 263.0802  97.0031 14.98331614 37126,6950.188,96.107,574.044,570.062,0.0
56817.0,STARLINK-5982,PAYLOAD,2024-01-26 14:52:02,14.98333705,0.0002786,70.001,133.5686,259.2106,100.8739,0.00013762,1.55e-05,0.0,0 STARLINK-5982,1 56817U 23078BC  24026.61946922  .00001550  00000-0  13762-3 0  9993,2 56817  70.0010 133.5686 0002786 259.2106 100.8739 14.98333705 36883,6950.181,96.107,573.983,570.11,0.0
56817.0,STARLINK-5982,PAYLOAD,2024-01-27 11:41:47,14.98325974,0.0002961,70.0012,131.3811,264.5547,95.5274,-6.7865e-05,-9.03e-06,0.0,0 STARLINK-5982,1 56817U 23078BC  24027.48736020 -.00000903  00000-0 -67865-4 0  9992,2 56817  70.0012 131.3811 0002961 264.5547  95.5274 14.98325974 37271,6950.205,96.107,574.128,570.012,0.0
56817.0,STARLINK-5982,PAYLOAD,2024-01-27 13:17:56,14.98323414,0.0002777,70.0011,131.2111,261.4884,98.5961,-2.4144e-05,-3.81e-06,0.0,0 STARLINK-5982,1 56817U 23078BC  24027.55412073 -.00000381  00000-0 -24144-4 0  9992,2 56817  70.0011 131.2111 0002777 261.4884  98.5961 14.98323414 37023,6950.213,96.107,574.008,570.148,0.0
56817.0,STARLINK-5982,PAYLOAD,2024-01-27 16:30:11,14.983303,0.0002956,70.0003,130.8743,266.6179,93.4642,-2.0204e-05,-3.34e-06,0.0,0 STARLINK-5982,1 56817U 23078BC  24027.68763620 -.00000334  00000-0 -20204-4 0  9994,2 56817  70.0003 130.8743 0002956 266.6179  93.4642 14.98330300 37047,6950.192,96.107,574.111,570.002,0.0
56817.0,STARLINK-5982,PAYLOAD,2024-01-28 11:43:48,14.98327544,0.0002748,70.0003,128.8535,261.0355,99.0493,-0.00011099,-1.417e-05,0.0,0 STARLINK-5982,1 56817U 23078BC  24028.48876072 -.00001417  00000-0 -11099-3 0  9993,2 56817  70.0003 128.8535 0002748 261.0355  99.0493 14.98327544 37421,6950.2,96.107,573.975,570.156,0.0
56817.0,STARLINK-5982,PAYLOAD,2024-01-28 13:19:56,14.98328083,0.0002921,70.0005,128.6858,264.5461,95.5364,-0.00012283,-1.558e-05,0.0,0 STARLINK-5982,1 56817U 23078BC  24028.55552082 -.00001558  00000-0 -12283-3 0  9995,2 56817  70.0005 128.6858 0002921 264.5461  95.5364 14.98328083 37177,6950.199,96.107,574.094,570.034,0.0
56817.0,STARLINK-5982,PAYLOAD,2024-01-28 16:32:12,14.98329595,0.000282,70.0008,128.3495,262.1003,97.9836,-9.0472e-05,-1.172e-05,0.0,0 STARLINK-5982,1 56817U 23078BC  24028.68903894 -.00001172  00000-0 -90472-4 0  9999,2 56817  70.0008 128.3495 0002820 262.1003  97.9836 14.98329595 37199,6950.194,96.107,574.019,570.099,0.0
56817.0,STARLINK-5982,PAYLOAD,2024-01-29 11:45:48,14.98333098,0.0002411,70.0023,126.3317,250.3557,109.7342,0.00015527,1.76e-05,0.0,0 STARLINK-5982,1 56817U 23078BC  24029.49014938  .00001760  00000-0  15527-3 0  9999,2 56817  70.0023 126.3317 0002411 250.3557 109.7342 14.98333098 37575,6950.183,96.107,573.724,570.373,0.0
56817.0,STARLINK-5982,PAYLOAD,2024-01-30 11:47:50,14.98319651,0.0002433,70.0041,123.812,216.864,143.2352,0.00010063,1.108e-05,0.0,0 STARLINK-5982,1 56817U 23078BC  24030.49155770  .00001108  00000-0  10063-3 0  9997,2 56817  70.0041 123.8120 0002433 216.8640 143.2352 14.98319651 37723,6950.225,96.108,573.781,570.399,0.0
56817.0,STARLINK-5982,PAYLOAD,2024-01-30 13:23:59,14.98314437,0.0002286,70.0032,123.6396,231.9384,128.1569,-3.6428e-05,-5.27e-06,0.0,0 STARLINK-5982,1 56817U 23078BC  24030.55832592 -.00000527  00000-0 -36428-4 0  9998,2 56817  70.0032 123.6396 0002286 231.9384 128.1569 14.98314437 37476,6950.241,96.108,573.695,570.517,0.0
56817.0,STARLINK-5982,PAYLOAD,2024-01-30 16:36:15,14.98322872,0.0002755,70.0009,123.2991,271.935,88.1493,1.2352e-05,5.4e-07,0.0,0 STARLINK-5982,1 56817U 23078BC  24030.69184082  .00000054  00000-0  12352-4 0  9990,2 56817  70.0009 123.2991 0002755 271.9350  88.1493 14.98322872 37490,6950.215,96.107,573.995,570.165,0.0
56817.0,STARLINK-5982,PAYLOAD,2024-01-31 11:49:51,14.98330173,0.000263,70.0046,121.2848,203.7841,156.3197,-3.6809e-05,-5.32e-06,0.0,0 STARLINK-5982,1 56817U 23078BC  24031.49295421 -.00000532  00000-0 -36809-4 0  9995,2 56817  70.0046 121.2848 0002630 203.7841 156.3197 14.98330173 37874,6950.192,96.107,573.885,570.229,0.0
56817.0,STARLINK-5982,PAYLOAD,2024-02-01 11:51:52,14.9832716,0.0002657,70.001,118.7563,258.1374,101.9487,8.3773e-05,9.07e-06,0.0,0 STARLINK-5982,1 56817U 23078BC  24032.49435250  .00000907  00000-0  83773-4 0  9998,2 56817  70.0010 118.7563 0002657 258.1374 101.9487 14.98327160 38022,6950.202,96.107,573.913,570.22,0.0
56817.0,STARLINK-5982,PAYLOAD,2024-02-01 15:04:08,14.98326838,0.000289,70.0003,118.4187,267.3474,92.7355,6.8809e-05,7.28e-06,0.0,0 STARLINK-5982,1 56817U 23078BC  24032.62787363  .00000728  00000-0  68809-4 0  9992,2 56817  70.0003 118.4187 0002890 267.3474  92.7355 14.98326838 37789,6950.203,96.107,574.076,570.059,0.0
